{
    "links": {
        "self": "http://www.neowsapp.com/rest/v1/neo/3739169?api_key=iIulBulltgU6a56xZRHN4H3l9WmuAYTsLGpBGhQ2"
    },
    "id": "3739169",
    "neo_reference_id": "3739169",
    "name": "(2016 AK2)",
    "designation": "2016 AK2",
    "nasa_jpl_url": "http://ssd.jpl.nasa.gov/sbdb.cgi?sstr=3739169",
    "absolute_magnitude_h": 21.9,
    "estimated_diameter": {
        "kilometers": {
            "estimated_diameter_min": 0.1108038821,
            "estimated_diameter_max": 0.2477650126
        },
        "meters": {
            "estimated_diameter_min": 110.8038821264,
            "estimated_diameter_max": 247.7650126055
        },
        "miles": {
            "estimated_diameter_min": 0.068850319,
            "estimated_diameter_max": 0.1539539936
        },
        "feet": {
            "estimated_diameter_min": 363.5298086356,
            "estimated_diameter_max": 812.8773639568
        }
    },
    "is_potentially_hazardous_asteroid": false,
    "close_approach_data": [
        {
            "close_approach_date": "2015-12-30",
            "close_approach_date_full": "2015-Dec-30 12:20",
            "epoch_date_close_approach": 1451478000000,
            "relative_velocity": {
                "kilometers_per_second": "14.03272828",
                "kilometers_per_hour": "50517.8218079089",
                "miles_per_hour": "31389.8098894754"
            },
            "miss_distance": {
                "astronomical": "0.1359859287",
                "lunar": "52.8985262643",
                "kilometers": "20343205.283491869",
                "miles": "12640681.6069670322"
            },
            "orbiting_body": "Earth"
        }
    ],
    "orbital_data": {
        "orbit_id": "10",
        "orbit_determination_date": "2017-04-06 08:29:30",
        "first_observation_date": "2016-01-02",
        "last_observation_date": "2016-01-15",
        "data_arc_in_days": 13,
        "observations_used": 89,
        "orbit_uncertainty": "8",
        "minimum_orbit_intersection": ".135955",
        "jupiter_tisserand_invariant": "4.477",
        "epoch_osculation": "2457391.5",
        "eccentricity": ".2379433960059712",
        "semi_major_axis": "1.464634526972439",
        "inclination": "26.23624314204347",
        "ascending_node_longitude": "97.14152283989968",
        "orbital_period": "647.4292683873693",
        "perihelion_distance": "1.116134413717018",
        "perihelion_argument": "10.46788301775836",
        "aphelion_distance": "1.813134640227861",
        "perihelion_time": "2457397.121715083943",
        "mean_anomaly": "356.8740717649969",
        "mean_motion": ".5560452972672918",
        "equinox": "J2000",
        "orbit_class": {
            "orbit_class_type": "AMO",
            "orbit_class_description": "Near-Earth asteroid orbits similar to that of 1221 Amor",
            "orbit_class_range": "1.017 AU < q (perihelion) < 1.3 AU"
        }
    },
    "is_sentry_object": false
}